{
  "type": "FeatureCollection",
  "crs": {
    "type": "name",
    "properties": {
      "name": "EPSG:32635"
    }
  },
  "features": [
    {
      "type": "Feature",
      "geometry": {
        "type": "Polygon",
        "coordinates": [
          [
            [
              670339.5953491139,
              4539727.978235476
            ],
            [
              670340.4101879685,
              4539727.512613279
            ],
            [
              670327.0720519845,
              4539702.242908376
            ],
            [
              670330.0525190976,
              4539691.905852985
            ],
            [
              670340.8054818203,
              4539686.410540962
            ],
            [
              670341.4457123467,
              4539686.100126158
            ],
            [
              670341.9307354691,
              4539685.537499335
            ],
            [
              670342.4351595197,
              4539685.227084537
            ],
            [
              670343.1529937505,
              4539685.227084537
            ],
            [
              670343.5022104017,
              4539685.440494713
            ],
            [
              670344.2006436997,
              4539685.304688231
            ],
            [
              670343.9678326017,
              4539684.703259559
            ],
            [
              670354.2115210386,
              4539679.19339684
            ],
            [
              670354.715945085,
              4539678.979986665
            ],
            [
              670354.9487561937,
              4539678.999387582
            ],
            [
              670355.3561756196,
              4539679.173995915
            ],
            [
              670372.7200035478,
              4539712.014911823
            ],
            [
              670372.8558100213,
              4539712.596939575
            ],
            [
              670372.6909021619,
              4539713.208068715
            ],
            [
              670345.536882414,
              4539728.124954968
            ],
            [
              670345.9443018388,
              4539728.765185495
            ],
            [
              670342.898356607,
              4539730.433665048
            ],
            [
              670341.69549925,
              4539730.162052095
            ],
            [
              670340.4344391219,
              4539729.754632676
            ],
            [
              670339.5953491139,
              4539727.978235476
            ]
          ]
        ]
      },
      "properties": {
        "source_file": "blobk147layer-main.kml",
        "source_format": "kml",
        "area_m2": 1370.661,
        "perimeter_m": 147.848,
        "centroid_utm": [
          670348.789,
          4539704.617
        ],
        "kind": "block_outline",
        "name": "Block 147 outline"
      }
    }
  ]
}