{
  "type": "FeatureCollection",
  "crs": {
    "type": "name",
    "properties": {
      "name": "EPSG:32635"
    }
  },
  "features": [
    {
      "type": "Feature",
      "geometry": {
        "type": "Polygon",
        "coordinates": [
          [
            [
              670330.0944040604,
              4539703.762447951
            ],
            [
              670331.6984683129,
              4539710.937593289
            ],
            [
              670335.0791720056,
              4539717.256500193
            ],
            [
              670352.0888905886,
              4539711.804894238
            ],
            [
              670347.0532350875,
              4539695.290776196
            ],
            [
              670343.2388809205,
              4539696.529777552
            ],
            [
              670342.466717577,
              4539693.403511635
            ],
            [
              670340.988765962,
              4539693.779637047
            ],
            [
              670341.8472168997,
              4539697.797541437
            ],
            [
              670330.713904737,
              4539700.841944762
            ],
            [
              670330.0944040604,
              4539703.762447951
            ]
          ]
        ]
      },
      "properties": {
        "source_file": "churche-and-its-kubbe.shp",
        "source_format": "shp",
        "area_m2": 320.235,
        "perimeter_m": 77.037,
        "centroid_utm": [
          670340.796,
          4539706.38
        ],
        "kind": "church",
        "name": "churche-and-its-kubbe"
      }
    }
  ]
}