<?xml version="1.0" encoding="utf-8" ?>
<kml xmlns="http://www.opengis.net/kml/2.2">
<Document id="root_doc">
<Schema name="atthegreenareawoodenat147blocknearthechurchmiddleoftheblock" id="atthegreenareawoodenat147blocknearthechurchmiddleoftheblock">
	<SimpleField name="id" type="float"></SimpleField>
</Schema>
<Folder><name>atthegreenareawoodenat147blocknearthechurchmiddleoftheblock</name>
  <Placemark id="atthegreenareawoodenat147blocknearthechurchmiddleoftheblock.1">
	<Style><LineStyle><color>ff0000ff</color></LineStyle><PolyStyle><fill>0</fill></PolyStyle></Style>
      <MultiGeometry><Polygon><outerBoundaryIs><LinearRing><coordinates>29.0252118471558,40.9908057290223 29.0253216812879,40.9907589529414 29.025298621041,40.9907312382257 29.0251981540511,40.9907730410296 29.0252118471558,40.9908057290223</coordinates></LinearRing></outerBoundaryIs></Polygon></MultiGeometry>
  </Placemark>
</Folder>
</Document></kml>
