<?xml version="1.0" encoding="utf-8" ?>
<kml xmlns="http://www.opengis.net/kml/2.2">
<Document id="root_doc">
<Schema name="blobk147layermain" id="blobk147layermain">
	<SimpleField name="id" type="float"></SimpleField>
</Schema>
<Folder><name>blobk147layermain</name>
  <Placemark id="blobk147layermain.1">
	<Style><LineStyle><color>ff0000ff</color></LineStyle><PolyStyle><fill>0</fill></PolyStyle></Style>
      <MultiGeometry><Polygon><outerBoundaryIs><LinearRing><coordinates>29.0250677336082,40.9909550937557 29.0250772866614,40.9909507317991 29.024911848996,40.9907260232627 29.0249444124141,40.990632340443 29.0250706569108,40.9905806231169 29.0250781781143,40.9905776948918 29.0250837857573,40.9905725285058 29.025089693408,40.9905696286365 29.025098222179,40.9905694787515 29.0251024301199,40.990571327084 29.0251106909595,40.9905699586355 29.0251077591365,40.9905645928162 29.0252279485495,40.9905128506666 29.0252338829214,40.9905108240854 29.0252366543533,40.9905109501297 29.0252415431221,40.9905124369854 29.0254568984702,40.9908044650124 29.0254586724448,40.9908096764212 29.0254568815647,40.9908152126198 29.0251383673186,40.9909551739975 29.0251433844337,40.9909608526737 29.0251076543584,40.9909765093657 29.0250932879678,40.9909743153004 29.0250781926279,40.9909709107728 29.0250677336082,40.9909550937557</coordinates></LinearRing></outerBoundaryIs></Polygon></MultiGeometry>
  </Placemark>
</Folder>
</Document></kml>
