<?xml version="1.0" encoding="utf-8" ?>
<kml xmlns="http://www.opengis.net/kml/2.2">
<Document id="root_doc">
<Schema name="buildingentrence46" id="buildingentrence46">
	<SimpleField name="id" type="float"></SimpleField>
</Schema>
<Folder><name>buildingentrence46</name>
  <Placemark id="buildingentrence46.1">
	<Style><LineStyle><color>ff0000ff</color></LineStyle><PolyStyle><fill>0</fill></PolyStyle></Style>
      <MultiGeometry><Polygon><outerBoundaryIs><LinearRing><coordinates>29.0252579722062,40.9909018140248 29.025297769331,40.9908849605914 29.025297769331,40.9908849605914 29.0252463297864,40.9908127312343 29.0252050099817,40.9908304925368 29.0252579722062,40.9909018140248</coordinates></LinearRing></outerBoundaryIs></Polygon></MultiGeometry>
  </Placemark>
</Folder>
</Document></kml>
