<?xml version="1.0" encoding="utf-8" ?>
<kml xmlns="http://www.opengis.net/kml/2.2">
<Document id="root_doc">
<Schema name="buildingentrence12" id="buildingentrence12">
	<SimpleField name="id" type="float"></SimpleField>
</Schema>
<Folder><name>buildingentrence12</name>
  <Placemark id="buildingentrence12.1">
	<Style><LineStyle><color>ff0000ff</color></LineStyle><PolyStyle><fill>0</fill></PolyStyle></Style>
      <MultiGeometry><Polygon><outerBoundaryIs><LinearRing><coordinates>29.0252471714257,40.9906420049468 29.0253130652509,40.9906143577455 29.0253020821327,40.9905981757201 29.0252352059294,40.9906248769417 29.0252471714257,40.9906420049468</coordinates></LinearRing></outerBoundaryIs></Polygon></MultiGeometry>
  </Placemark>
</Folder>
</Document></kml>
