<?xml version="1.0" encoding="utf-8" ?>
<kml xmlns="http://www.opengis.net/kml/2.2">
<Document id="root_doc">
<Schema name="buildingentrence14" id="buildingentrence14">
	<SimpleField name="id" type="float"></SimpleField>
</Schema>
<Folder><name>buildingentrence14</name>
  <Placemark id="buildingentrence14.1">
	<Style><LineStyle><color>ff0000ff</color></LineStyle><PolyStyle><fill>0</fill></PolyStyle></Style>
      <MultiGeometry><Polygon><outerBoundaryIs><LinearRing><coordinates>29.0252031111882,40.9906391069972 29.0253018620382,40.9905980513279 29.025278544202,40.990566794761 29.0251810838324,40.9906071850545 29.0251814923969,40.9906079374002 29.0252031111882,40.9906391069972</coordinates></LinearRing></outerBoundaryIs></Polygon></MultiGeometry>
  </Placemark>
</Folder>
</Document></kml>
