<?xml version="1.0" encoding="utf-8" ?>
<kml xmlns="http://www.opengis.net/kml/2.2">
<Document id="root_doc">
<Schema name="buildingentrence08" id="buildingentrence08">
	<SimpleField name="id" type="float"></SimpleField>
</Schema>
<Folder><name>buildingentrence08</name>
  <Placemark id="buildingentrence08.1">
	<Style><LineStyle><color>ff0000ff</color></LineStyle><PolyStyle><fill>0</fill></PolyStyle></Style>
      <MultiGeometry><Polygon><outerBoundaryIs><LinearRing><coordinates>29.0252922178242,40.9907045209756 29.0253587417776,40.9906760878531 29.0253379152368,40.9906487572523 29.0252730640736,40.9906758626819 29.0252922178242,40.9907045209756</coordinates></LinearRing></outerBoundaryIs></Polygon></MultiGeometry>
  </Placemark>
</Folder>
</Document></kml>
