<?xml version="1.0" encoding="utf-8" ?>
<kml xmlns="http://www.opengis.net/kml/2.2">
<Document id="root_doc">
<Schema name="buildingentrence06" id="buildingentrence06">
	<SimpleField name="id" type="float"></SimpleField>
</Schema>
<Folder><name>buildingentrence06</name>
  <Placemark id="buildingentrence06.1">
	<Style><LineStyle><color>ff0000ff</color></LineStyle><PolyStyle><fill>0</fill></PolyStyle></Style>
      <MultiGeometry><Polygon><outerBoundaryIs><LinearRing><coordinates>29.0253154076026,40.9907342660168 29.0253837571703,40.9907083082326 29.0253611272691,40.990676465024 29.0252936076036,40.9907047111345 29.0253154076026,40.9907342660168</coordinates></LinearRing></outerBoundaryIs></Polygon></MultiGeometry>
  </Placemark>
</Folder>
</Document></kml>
