<?xml version="1.0" encoding="utf-8" ?>
<kml xmlns="http://www.opengis.net/kml/2.2">
<Document id="root_doc">
<Schema name="near39open32the_middlemagazine" id="near39open32the_middlemagazine">
	<SimpleField name="id" type="float"></SimpleField>
</Schema>
<Folder><name>near39open32the_middlemagazine</name>
  <Placemark id="near39open32the_middlemagazine.1">
	<Style><LineStyle><color>ff0000ff</color></LineStyle><PolyStyle><fill>0</fill></PolyStyle></Style>
      <MultiGeometry><Polygon><altitudeMode>clampToGround</altitudeMode><outerBoundaryIs><LinearRing><altitudeMode>clampToGround</altitudeMode><coordinates>29.0249385833995,40.990761620952 29.0249266907609,40.990744292397 29.0249479900655,40.990738975713 29.024954705707,40.9907590258715 29.0249385833995,40.990761620952</coordinates></LinearRing></outerBoundaryIs></Polygon></MultiGeometry>
  </Placemark>
</Folder>
</Document></kml>
